#dP2019  8 25  0  0  0.00000000      96 __u+U IGS08 FIT  IAC
## 2068      0.00000000   900.00000000 58720 0.0000000000000
+  113   C01C02C03C04C05C06C08C09C10C11C12C13C14C16C19C20C21
+        C22C23C24C25C26C27C28C29C30C32C33C34C35C36E01E02E03
+        E04E05E07E08E09E11E12E13E14E15E18E19E21E24E25E26E27
+        E30E31E33E36G01G02G03G04G05G06G07G08G09G10G11G12G13
+        G14G15G16G17G18G19G20G21G22G23G24G25G26G27G28G29G30
+        G31G32J01J02J03J07R01R02R03R04R05R07R08R09R11R12R13
+        R14R15R16R17R18R19R20R21R22R23R24  0  0  0  0  0  0
++        13 13 13 13 13  8  8  8  8  7  7  7  7  8  7  7  7
++         7  7  7  7  7  8  7  8  8  7  7  8  9  8  4  4  4
++         5  4  4  4  4  4  4  4  4  4  4  4  4  4  4  4  4
++         4  4  4  5  3  3  3  3  3  3  3  3  3  3  3  3  3
++         3  3  3  3  3  3  3  3  3  3  3  3  3  3  3  3  3
++         3  3  9  8  8 13  6  7  5  0  5  5  5  5  5  5  6
++         5  5  6  5  5  6  5  5  5  5  6  0  0  0  0  0  0
%c M  cc GPS ccc cccc cccc cccc cccc ccccc ccccc ccccc ccccc
%c cc cc ccc ccc cccc cccc cccc cccc ccccc ccccc ccccc ccccc
%f  1.2500000  1.025000000  0.00000000000  0.000000000000000
%f  0.0000000  0.000000000  0.00000000000  0.000000000000000
%i    0    0    0    0      0      0      0      0         0
%i    0    0    0    0      0      0      0      0         0
/* INFORMATION & ANALYSIS CENTER (IAC)            FINAL DATA
/* S/V CLOCKS ARE ALIGNED TO GPS & GLONASS TIME RESPECTIVELY
/* USING THE BROADCAST EPHEMERIS                            
/* PCV:IGS14_2062 OL/AL:FES2004  NONE     YN ORB:CoN CLK:CoN
*  2019 08 25 15 15  0.00000000
PC01 -32340.813975  27078.515914   -362.523212    204.944257
PC02   4299.816574  41925.846029   -364.739863    -50.820468
PC03 -14739.709781  39504.837834   -717.145988   -114.468331
PC04 -39635.095108  14426.562500   -531.844663    117.451346
PC05  22000.595838  35964.680132   -281.905525   -141.089719
PC06 -21224.580441  25768.728209  25866.085010    452.203831
PC08  -7248.821855  22086.780224 -35056.069675    164.498674
PC09  -7432.449118  25888.803221  32592.899835    -82.834685
PC10  -5253.153043  42017.622119  -1937.455410   -114.438533
PC11   3701.952830 -15038.394720  23260.034666    193.459470
PC12  26908.350759  -2386.653529   6873.314378   -234.848533
PC13   5457.477034  30149.798406 -28794.605026   -934.467849
PC14  15943.515130 -22924.090906    540.348655    507.818514
PC16 -19600.340273  25815.214978  26919.409129   -876.381256
PC19   -943.057605  22320.614528  16757.893887    181.393551
PC20 -14933.229504  23570.500680   1108.900348     -1.596465
PC21  20446.609069 -10749.797565  15656.034943    344.864546
PC22  13774.905703   8109.987112  22877.598743    -28.115088
PC23 -17730.142670 -17821.147071  12116.169753   -929.164739
PC24   6298.049594 -19034.369642 -19410.261541   -921.580875
PC25  -8978.892959 -25955.725853  -4973.530220   -326.480235
PC26  16667.201104  -1825.814728 -22301.914511    364.802173
PC27 -27012.376178   2065.111054  -6679.848978    178.044154
PC28 -23776.238004  -9820.508564  10833.963169    172.015434
PC29   7269.096914  15665.343130 -21926.816539    109.305418
PC30 -14140.996364  13176.059079 -20125.211796    181.450065
PC32 -20378.705372  10962.244465 -15593.609006   -910.667743
PC33    867.516874 -22336.967859 -16685.583405   -335.105603
PC34  13945.996183 -13254.984176  20213.407936    -25.392069
PC35  24054.863247   9084.207355 -10877.786379   -268.433618
PC36   8240.434682  26173.059166   5162.806855   -745.825636
PE01  -8379.078481 -26094.857123  11173.848034   -676.077052
PE02   8406.639970  26069.226967 -11215.927682     75.669567
PE03   7795.937931  15314.044102  24105.361111   -203.488229
PE04 -23474.438835   -342.376780 -18022.984544   -351.821718
PE05 -12578.506113  21424.512685  16100.913393   -454.403745
PE07  25496.004489 -14969.158866   1287.094813   -253.227469
PE08  23472.930494    -21.046755  18028.996689   6302.060184
PE09 -25369.151282  15221.433484  -1224.220754   6336.886559
PE11 -20746.256298   4715.371241 -20585.799968   5613.861815
PE12 -27249.799218 -10627.916354  -4511.009655   6230.838588
PE13  20796.669851  -4640.250834  20545.020449    391.938735
PE14 -24835.569465  12330.400186  -9513.940135   -694.913252
PE15  27329.113130  10276.654382   4859.886020    898.007919
PE18  27697.099018  -1507.938397  -3500.251053   -789.480574
PE19  -5701.729646 -16324.073468 -24017.704036     -4.335048
PE21   3997.495633 -28275.466102  -7763.859741   -551.324780
PE24 -14128.893131  13910.407119  21971.324917   5905.570591
PE25  -4055.785673  28260.122089   7851.351992   1699.656795
PE26   2129.804828 -17059.859192  24094.315088   4183.260073
PE27  14070.168216 -13782.737084 -22085.101590    400.925673
PE30  15876.615780   8711.101636 -23416.352654   4600.305034
PE31 -15866.640929  -8735.562458  23421.073924   -467.697425
PE33 -17862.507800 -19209.941021  13713.859167   -469.851182
PE36  -2054.521530  16878.833574 -24229.419407    670.409118
PG01  21214.244487  12435.883972  10239.441227   -107.628181
PG02 -13195.760038 -21336.633887   9539.035495   -290.686456
PG03  14832.558587   3110.917112  21757.676234     -4.583523
PG04   1874.468567  15515.264430 -21720.615372    139.101253
PG05  -4815.374767 -21818.533940 -14337.104035     -0.883838
PG06    656.211071 -18226.528081  19336.455008    -36.112584
PG07  17551.104530  -1624.205861 -19731.449938    -92.538027
PG08  19835.317733   6549.391370 -16491.137838     -4.037948
PG09  25258.106868  -7989.646998  -2003.301430    -14.999991
PG10 -11377.169307  22965.414657  -6478.001517    -27.714860
PG11  24880.272388   8753.517146    689.100179   -525.547610
PG12 -12679.670261  -7724.954914  21819.028390    210.592405
PG13 -10067.793708 -13269.162000 -20813.058704    -47.859896
PG14  -5469.667888  15734.512873  20976.678775    -64.772728
PG15 -20944.918075  -5358.309752 -15955.755586   -291.681064
PG16   1489.767038  22270.699798 -14241.109977    -68.132765
PG17  14309.902642 -14449.934605  17448.738288    113.266244
PG18  19929.199695  17547.946779   1367.408933     80.630411
PG19   8534.160853 -14726.201966  20098.500944   -276.181932
PG20 -14119.754517  16624.166386 -15143.146082    526.612911
PG21 -13808.473713   7356.675160 -20653.185754   -130.244497
PG22  13207.535332  11191.176907  20387.942513   -747.827895
PG23  24913.808059    947.636586  10048.309465   -170.388032
PG24 -21952.409924 -13294.427964   7333.041923     -1.269714
PG25 -16137.043665   7792.019565  19307.477483     -9.189965
PG26  -3754.648516  25862.079099  -4175.489083     23.480371
PG27   7178.703177  13415.505085 -21910.400101    -34.799227
PG28  12777.472388 -22574.725422  -5338.278199    763.930212
PG29 -26236.953488   4165.303212    592.932782    115.563179
PG30   9692.960103 -12517.214041 -21279.402533    -26.930396
PG31    199.926288  19222.600631  18123.749429     14.915660
PG32 -13977.710762  15458.262481  16456.245098     32.535324
PJ01 -25443.431289  33186.715354  -1241.891565   -255.298705
PJ02 -25184.251637  24056.858054  28588.219052     -2.927132
PJ03 -34350.381703  18030.046000 -11943.956932     -0.993557
PJ07 -25402.461127  33666.052609     -0.908214     -0.058395
PR01 -11110.326508  -4186.196012 -22576.323459     48.701280
PR02 -19584.588878  12686.558253 -10202.424626    384.959003
PR03 -14612.888364  19575.617499   7304.445012      0.563784
PR04      0.000000      0.000000      0.000000 999999.999999
PR05  12618.322798   2026.968706  22088.873427     34.502524
PR07  14411.693810 -19602.042491  -7692.253135    -25.610813
PR08   1480.366613 -15205.445267 -20377.803144     15.985283
PR09   9514.114953  -7022.832988 -22575.895268     87.215290
PR11  -7513.295947 -24265.975854   2003.267767    -77.180035
PR12 -12252.750288 -14535.914060  17048.255794     55.826515
PR13 -10013.810168   4583.394823  22998.299648    -27.555700
PR14  -2144.241946  20326.108468  15294.451549     42.307059
PR15   7027.427871  24501.343155  -1048.180107    103.676817
PR16  12621.579868  14009.850931 -17135.056515      5.564203
PR17  -8928.384146   8227.881387 -22436.696386    254.816005
PR18   9361.619407  12135.814458 -20397.043557      5.091730
PR19  22182.659112  10098.700606  -7514.136775    -50.239404
PR20  22640.951599   1281.122422  11719.416737   -388.485819
PR21   8103.224472  -8451.013773  22652.425814    -68.229026
PR22 -11978.727471 -12163.149611  18903.388015    -34.690526
PR23 -24295.010428  -7569.759822   1800.845326    249.593706
PR24 -21683.394224    267.700625 -13456.630563   -184.038096
EOF
